NORAD_CAT_ID,OBJECT_NAME,OBJECT_TYPE,EPOCH,MEAN_MOTION,ECCENTRICITY,INCLINATION,RA_OF_ASC_NODE,ARG_OF_PERICENTER,MEAN_ANOMALY,BSTAR,MEAN_MOTION_DOT,MEAN_MOTION_DDOT,TLE_LINE0,TLE_LINE1,TLE_LINE2,SEMIMAJOR_AXIS,PERIOD,APOGEE,PERIGEE,DECAYED
49425.0,STARLINK-3139,PAYLOAD,2022-01-25 14:00:01,15.11943987,0.0001649,53.2174,141.3284,49.3232,55.298,-0.041,-0.00665591,0.0,0 STARLINK-3139,1 49425U 21104T   22025.58334491 -.00665591  00000-0 -41000-1 0  9990,2 49425  53.2174 141.3284 0001649  49.3232  55.2980 15.11943987  3611,6908.409000000002,95.242,531.413,529.135,0.0
49425.0,STARLINK-3139,PAYLOAD,2022-01-25 22:00:00,15.11476479,0.0001398,53.2173,139.8259,65.3593,54.3024,-0.041405,-0.00663555,0.0,0 STARLINK-3139,1 49425U 21104T   22025.91667824 -.00663555  00000-0 -41405-1 0  9993,2 49425  53.2173 139.8259 0001398  65.3593  54.3024 15.11476479  3653,6909.833000000001,95.271,532.664,530.732,0.0
49425.0,STARLINK-3139,PAYLOAD,2022-01-26 06:00:00,15.1101043,0.0001498,53.2174,138.3237,61.5377,72.6038,-0.042026,-0.00664745,0.0,0 STARLINK-3139,1 49425U 21104T   22026.25001157 -.00664745  00000-0 -42026-1 0  9994,2 49425  53.2174 138.3237 0001498  61.5377  72.6038 15.11010430 12742,6911.254,95.3,534.155,532.0840000000002,0.0
49425.0,STARLINK-3139,PAYLOAD,2022-01-26 14:00:01,15.10543714,0.0001692,53.2173,136.8257,52.2796,95.7796,-0.042577,-0.00664795,0.0,0 STARLINK-3139,1 49425U 21104T   22026.58334491 -.00664795  00000-0 -42577-1 0  9996,2 49425  53.2173 136.8257 0001692  52.2796  95.7796 15.10543714  3634,6912.678000000001,95.33,535.712,533.373,0.0
49425.0,STARLINK-3139,PAYLOAD,2022-01-26 21:17:52,15.11367285,0.0001838,53.2164,135.44799999999998,123.6562,236.4607,-0.012287,-0.00204099,0.0,0 STARLINK-3139,1 49425U 21104T   22026.88741322 -.00204099  00000-0 -12287-1 0  9996,2 49425  53.2164 135.4480 0001838 123.6562 236.4607 15.11367285 11769,6910.166,95.278,533.3009999999998,530.761,0.0
49425.0,STARLINK-3139,PAYLOAD,2022-01-27 13:11:16,15.10333701,0.0002515,53.2162,132.4741,92.2778,267.8503,-0.011664,-0.00188711,0.0,0 STARLINK-3139,1 49425U 21104T   22027.54950154 -.00188711  00000-0 -11664-1 0  9995,2 49425  53.2162 132.4741 0002515  92.2778 267.8503 15.10333701 11866,6913.319,95.343,536.922,533.445,0.0
49425.0,STARLINK-3139,PAYLOAD,2022-01-27 21:08:02,15.10009076,0.0001658,53.2162,130.9867,121.4632,238.6523,-0.011614,-0.00186276,0.0,0 STARLINK-3139,1 49425U 21104T   22027.88058246 -.00186276  00000-0 -11614-1 0  9992,2 49425  53.2162 130.9867 0001658 121.4632 238.6523 15.10009076 11918,6914.309,95.364,537.321,535.028,0.0
49425.0,STARLINK-3139,PAYLOAD,2022-01-27 22:00:00,15.0883792,0.000143,53.2172,130.835,68.3945,129.7699,-0.00010844,-2.013e-05,0.0,0 STARLINK-3139,1 49425U 21104T   22027.91667824 -.00002013  00000-0 -10844-3 0  9996,2 49425  53.2172 130.8350 0001430  68.3945 129.7699 15.08837920 12996,6917.887,95.438,540.741,538.762,0.0
49425.0,STARLINK-3139,PAYLOAD,2022-01-28 06:00:02,15.08845215,0.0001476,53.2164,129.3279,61.1109,148.8049,0.001409,0.00022211,0.0,0 STARLINK-3139,1 49425U 21104T   22028.25002315  .00022211  00000-0  14090-2 0  9998,2 49425  53.2164 129.3279 0001476  61.1109 148.8049 15.08845215 13047,6917.864000000001,95.437,540.751,538.7080000000002,0.0
49425.0,STARLINK-3139,PAYLOAD,2022-01-28 12:00:00,15.08870053,0.0001616,53.2165,128.2071,55.2307,73.3369,-0.0014559,-0.00023403,0.0,0 STARLINK-3139,1 49425U 21104T   22028.50001157 -.00023403  00000-0 -14559-2 0  9995,2 49425  53.2165 128.2071 0001616  55.2307  73.3369 15.08870053  3602,6917.7890000000025,95.436,540.771,538.536,0.0
49425.0,STARLINK-3139,PAYLOAD,2022-01-28 22:00:00,15.08895709,0.0001628,53.2168,126.3362,54.2716,178.8196,-0.0052337,-0.00082753,0.0,0 STARLINK-3139,1 49425U 21104T   22028.91667824 -.00082753  00000-0 -52337-2 0  9998,2 49425  53.2168 126.3362 0001628  54.2716 178.8196 15.08895709  3607,6917.71,95.434,540.701,538.4490000000002,0.0
49425.0,STARLINK-3139,PAYLOAD,2022-01-29 06:00:00,15.08843003,0.0001622,53.2172,124.8389,61.8808,182.8356,0.001067,0.00016735,0.0,0 STARLINK-3139,1 49425U 21104T   22029.25001157  .00016735  00000-0  10670-2 0  9996,2 49425  53.2172 124.8389 0001622  61.8808 182.8356 15.08843003 13192,6917.871,95.437,540.8580000000002,538.614,0.0
49425.0,STARLINK-3139,PAYLOAD,2022-01-29 14:00:01,15.08841188,0.0001744,53.2174,123.3443,53.0066,203.3282,-0.0011262,-0.00018168,0.0,0 STARLINK-3139,1 49425U 21104T   22029.58334491 -.00018168  00000-0 -11262-2 0  9994,2 49425  53.2174 123.3443 0001744  53.0066 203.3282 15.08841188  3630,6917.877,95.437,540.948,538.535,0.0
49425.0,STARLINK-3139,PAYLOAD,2022-01-29 22:00:00,15.08853153,0.0001618,53.2175,121.8472,52.5957,215.3277,-0.0018784,-0.00030069,0.0,0 STARLINK-3139,1 49425U 21104T   22029.91667824 -.00030069  00000-0 -18784-2 0  9990,2 49425  53.2175 121.8472 0001618  52.5957 215.3277 15.08853153 13294,6917.84,95.437,540.8240000000002,538.586,0.0
49425.0,STARLINK-3139,PAYLOAD,2022-01-30 14:00:01,15.08826217,0.000166,53.218,118.8556,49.3666,241.7718,0.00027205,4.043e-05,0.0,0 STARLINK-3139,1 49425U 21104T   22030.58334491  .00004043  00000-0  27205-3 0  9996,2 49425  53.2180 118.8556 0001660  49.3666 241.7718 15.08826217 13392,6917.9230000000025,95.438,540.936,538.639,0.0
49425.0,STARLINK-3139,PAYLOAD,2022-01-30 22:00:00,15.088491199999998,0.0001531999999999,53.2178,117.3584,50.2289,252.4838,-0.0021081,-0.0003369,0.0,0 STARLINK-3139,1 49425U 21104T   22030.91667824 -.00033690  00000-0 -21081-2 0  9999,2 49425  53.2178 117.3584 0001532  50.2289 252.4838 15.08849120  3629,6917.853,95.437,540.7769999999998,538.658,0.0
49425.0,STARLINK-3139,PAYLOAD,2022-01-31 14:00:01,15.08804564,0.000172,53.2179,114.367,51.377,274.5705,0.0013454,0.00021168,0.0,0 STARLINK-3139,1 49425U 21104T   22031.58335648  .00021168  00000-0  13454-2 0  9999,2 49425  53.2179 114.3670 0001720  51.3770 274.5705 15.08804564 13542,6917.989000000001,95.44,541.044,538.664,0.0
49425.0,STARLINK-3139,PAYLOAD,2022-01-31 22:00:01,15.08791567,0.0001486,53.2177,112.8711,56.6809,280.7861,0.0017657,0.00027888,0.0,0 STARLINK-3139,1 49425U 21104T   22031.91668981  .00027888  00000-0  17657-2 0  9999,2 49425  53.2177 112.8711 0001486  56.6809 280.7861 15.08791567 13594,6918.028,95.441,540.9209999999998,538.865,0.0
49425.0,STARLINK-3139,PAYLOAD,2022-02-01 14:00:01,15.08826813,0.000155,53.2174,109.8786,52.4884,308.1277,0.0018146,0.00028699,0.0,0 STARLINK-3139,1 49425U 21104T   22032.58335648  .00028699  00000-0  18146-2 0  9999,2 49425  53.2174 109.8786 0001550  52.4884 308.1277 15.08826813  3596,6917.920999999999,95.438,540.8580000000002,538.7130000000002,0.0
49425.0,STARLINK-3139,PAYLOAD,2022-02-01 22:00:00,15.08855444,0.0001444,53.2169,108.3809,54.9156,317.2290000000001,-0.00099123,-0.00016035,0.0,0 STARLINK-3139,1 49425U 21104T   22032.91667824 -.00016035  00000-0 -99123-3 0  9998,2 49425  53.2169 108.3809 0001444  54.9156 317.2290 15.08855444  3612,6917.833000000001,95.437,540.697,538.6990000000002,0.0
49425.0,STARLINK-3139,PAYLOAD,2022-02-02 06:00:00,15.08857102,0.0001416999999999,53.217,106.8843,59.9884,323.7519,-9.8355e-05,-1.854e-05,0.0,0 STARLINK-3139,1 49425U 21104T   22033.25001157 -.00001854  00000-0 -98355-4 0  9997,2 49425  53.2170 106.8843 0001417  59.9884 323.7519 15.08857102 13809,6917.828,95.436,540.673,538.7130000000002,0.0
49425.0,STARLINK-3139,PAYLOAD,2022-02-02 14:00:01,15.08840549,0.0001594,53.2168,105.3896,51.9766,343.3898,0.0021461,0.00034033,0.0,0 STARLINK-3139,1 49425U 21104T   22033.58334491  .00034033  00000-0  21461-2 0  9998,2 49425  53.2168 105.3896 0001594  51.9766 343.3898 15.08840549  3618,6917.879,95.438,540.846,538.641,0.0
49425.0,STARLINK-3139,PAYLOAD,2022-02-02 22:00:00,15.08883217,0.0001534,53.2164,103.8915,55.4576,351.5227,-0.0037499,-0.00059545,0.0,0 STARLINK-3139,1 49425U 21104T   22033.91667824 -.00059545  00000-0 -37499-2 0  9999,2 49425  53.2164 103.8915 0001534  55.4576 351.5227 15.08883217  3617,6917.748000000001,95.435,540.674,538.552,0.0
49425.0,STARLINK-3139,PAYLOAD,2022-02-03 14:00:01,15.08820337,0.000167,53.2164,100.9001,51.2195,19.0002,0.001268,0.00019939,0.0,0 STARLINK-3139,1 49425U 21104T   22034.58334491  .00019939  00000-0  12680-2 0  9990,2 49425  53.2164 100.9001 0001670  51.2195  19.0002 15.08820337 14009,6917.94,95.439,540.961,538.65,0.0
49425.0,STARLINK-3139,PAYLOAD,2022-02-03 22:00:01,15.08834426,0.0001548,53.2163,99.4019,53.5151,28.3516,4.0083e-05,3.5000000000000016e-06,0.0,0 STARLINK-3139,1 49425U 21104T   22034.91668981  .00000350  00000-0  40083-4 0  9998,2 49425  53.2163  99.4019 0001548  53.5151  28.3516 15.08834426  3612,6917.897,95.438,540.8330000000002,538.692,0.0
49425.0,STARLINK-3139,PAYLOAD,2022-02-04 14:00:01,15.08815863,0.0001518,53.2174,96.4185,57.701,47.2675,0.0022433,0.00035571,0.0,0 STARLINK-3139,1 49425U 21104T   22035.58335648  .00035571  00000-0  22433-2 0  9993,2 49425  53.2174  96.4185 0001518  57.7010  47.2675 15.08815863 14153,6917.954000000002,95.439,540.869,538.769,0.0
49425.0,STARLINK-3139,PAYLOAD,2022-02-04 22:00:00,15.08838243,0.0001693,53.2165,94.9124,63.7077,52.8977,-0.0021319,-0.00034056,0.0,0 STARLINK-3139,1 49425U 21104T   22035.91667824 -.00034056  00000-0 -21319-2 0  9995,2 49425  53.2165  94.9124 0001693  63.7077  52.8977 15.08838243 14203,6917.886,95.438,540.922,538.58,0.0
49425.0,STARLINK-3139,PAYLOAD,2022-02-05 14:00:01,15.08811327,0.000182,53.2168,91.921,57.2534,82.5295,0.0038824,0.00061996,0.0,0 STARLINK-3139,1 49425U 21104T   22036.58334491  .00061996  00000-0  38824-2 0  9990,2 49425  53.2168  91.9210 0001820  57.2534  82.5295 15.08811327 14305,6917.968000000003,95.439,541.092,538.5740000000002,0.0
49425.0,STARLINK-3139,PAYLOAD,2022-02-06 06:00:00,15.08864309,0.0001641,53.2172,88.9267,61.767,101.198,-0.0041744999999999,-0.0006616,0.0,0 STARLINK-3139,1 49425U 21104T   22037.25001157 -.00066160  00000-0 -41745-2 0  9991,2 49425  53.2172  88.9267 0001641  61.7670 101.1980 15.08864309 14408,6917.806,95.436,540.806,538.536,0.0
